CCSDS_OMM_VERS = 2.0
CREATION_DATE  = 
ORIGINATOR     = 

OBJECT_NAME    = TWILIGHT AF
OBJECT_ID      = 2026-004AF
CENTER_NAME    = EARTH
REF_FRAME      = TEME
TIME_SYSTEM    = UTC
MEAN_ELEMENT_THEORY = SGP/SGP4

EPOCH          = 2026-01-25T03:12:42.442848
MEAN_MOTION    = 15.17566202
ECCENTRICITY   = .0007415
INCLINATION    = 97.4498
RA_OF_ASC_NODE = 26.2811
ARG_OF_PERICENTER = 104.9349
MEAN_ANOMALY   = 255.2706

EPHEMERIS_TYPE = 0
CLASSIFICATION_TYPE = U
NORAD_CAT_ID   = 67392
ELEMENT_SET_NO = 999
REV_AT_EPOCH   = 205
BSTAR          = .10567E-2
MEAN_MOTION_DOT = .21211E-3
MEAN_MOTION_DDOT = 0

CCSDS_OMM_VERS = 2.0
CREATION_DATE  = 
ORIGINATOR     = 

OBJECT_NAME    = TWILIGHT AG
OBJECT_ID      = 2026-004AG
CENTER_NAME    = EARTH
REF_FRAME      = TEME
TIME_SYSTEM    = UTC
MEAN_ELEMENT_THEORY = SGP/SGP4

EPOCH          = 2026-01-24T17:41:33.794016
MEAN_MOTION    = 15.17706881
ECCENTRICITY   = .0007477
INCLINATION    = 97.4527
RA_OF_ASC_NODE = 25.8996
ARG_OF_PERICENTER = 110.9682
MEAN_ANOMALY   = 249.2353

EPHEMERIS_TYPE = 0
CLASSIFICATION_TYPE = U
NORAD_CAT_ID   = 67393
ELEMENT_SET_NO = 999
REV_AT_EPOCH   = 199
BSTAR          = .86616223E-3
MEAN_MOTION_DOT = .17436E-3
MEAN_MOTION_DDOT = 0

CCSDS_OMM_VERS = 2.0
CREATION_DATE  = 
ORIGINATOR     = 

OBJECT_NAME    = TWILIGHT AH
OBJECT_ID      = 2026-004AH
CENTER_NAME    = EARTH
REF_FRAME      = TEME
TIME_SYSTEM    = UTC
MEAN_ELEMENT_THEORY = SGP/SGP4

EPOCH          = 2026-01-25T03:02:46.031424
MEAN_MOTION    = 15.18151569
ECCENTRICITY   = .0010679
INCLINATION    = 97.4468
RA_OF_ASC_NODE = 26.2848
ARG_OF_PERICENTER = 111.1588
MEAN_ANOMALY   = 249.0788

EPHEMERIS_TYPE = 0
CLASSIFICATION_TYPE = U
NORAD_CAT_ID   = 67394
ELEMENT_SET_NO = 999
REV_AT_EPOCH   = 205
BSTAR          = .67222E-3
MEAN_MOTION_DOT = .13694E-3
MEAN_MOTION_DDOT = 0

CCSDS_OMM_VERS = 2.0
CREATION_DATE  = 
ORIGINATOR     = 

OBJECT_NAME    = TWILIGHT AJ
OBJECT_ID      = 2026-004AJ
CENTER_NAME    = EARTH
REF_FRAME      = TEME
TIME_SYSTEM    = UTC
MEAN_ELEMENT_THEORY = SGP/SGP4

EPOCH          = 2026-01-25T03:10:24.005856
MEAN_MOTION    = 14.87767929
ECCENTRICITY   = .0004059
INCLINATION    = 97.8006
RA_OF_ASC_NODE = 26.0750
ARG_OF_PERICENTER = 229.8751
MEAN_ANOMALY   = 130.2111

EPHEMERIS_TYPE = 0
CLASSIFICATION_TYPE = U
NORAD_CAT_ID   = 67395
ELEMENT_SET_NO = 999
REV_AT_EPOCH   = 200
BSTAR          = .43237E-3
MEAN_MOTION_DOT = .3893E-4
MEAN_MOTION_DDOT = 0

CCSDS_OMM_VERS = 2.0
CREATION_DATE  = 
ORIGINATOR     = 

OBJECT_NAME    = TWILIGHT AK
OBJECT_ID      = 2026-004AK
CENTER_NAME    = EARTH
REF_FRAME      = TEME
TIME_SYSTEM    = UTC
MEAN_ELEMENT_THEORY = SGP/SGP4

EPOCH          = 2026-01-25T03:07:57.422208
MEAN_MOTION    = 15.17767640
ECCENTRICITY   = .0008819
INCLINATION    = 97.4505
RA_OF_ASC_NODE = 26.2868
ARG_OF_PERICENTER = 110.7149
MEAN_ANOMALY   = 249.5030

EPHEMERIS_TYPE = 0
CLASSIFICATION_TYPE = U
NORAD_CAT_ID   = 67396
ELEMENT_SET_NO = 999
REV_AT_EPOCH   = 205
BSTAR          = .68918E-3
MEAN_MOTION_DOT = .13881E-3
MEAN_MOTION_DDOT = 0

CCSDS_OMM_VERS = 2.0
CREATION_DATE  = 
ORIGINATOR     = 

OBJECT_NAME    = TWILIGHT AL
OBJECT_ID      = 2026-004AL
CENTER_NAME    = EARTH
REF_FRAME      = TEME
TIME_SYSTEM    = UTC
MEAN_ELEMENT_THEORY = SGP/SGP4

EPOCH          = 2026-01-25T03:10:25.544640
MEAN_MOTION    = 15.17613551
ECCENTRICITY   = .0007736
INCLINATION    = 97.4525
RA_OF_ASC_NODE = 26.2887
ARG_OF_PERICENTER = 110.9430
MEAN_ANOMALY   = 249.2632

EPHEMERIS_TYPE = 0
CLASSIFICATION_TYPE = U
NORAD_CAT_ID   = 67397
ELEMENT_SET_NO = 999
REV_AT_EPOCH   = 205
BSTAR          = .92084E-3
MEAN_MOTION_DOT = .18495E-3
MEAN_MOTION_DDOT = 0

CCSDS_OMM_VERS = 2.0
CREATION_DATE  = 
ORIGINATOR     = 

OBJECT_NAME    = TWILIGHT AM
OBJECT_ID      = 2026-004AM
CENTER_NAME    = EARTH
REF_FRAME      = TEME
TIME_SYSTEM    = UTC
MEAN_ELEMENT_THEORY = SGP/SGP4

EPOCH          = 2026-01-25T03:07:22.892448
MEAN_MOTION    = 15.17811983
ECCENTRICITY   = .0008587
INCLINATION    = 97.4563
RA_OF_ASC_NODE = 26.2977
ARG_OF_PERICENTER = 118.2337
MEAN_ANOMALY   = 241.9765

EPHEMERIS_TYPE = 0
CLASSIFICATION_TYPE = U
NORAD_CAT_ID   = 67398
ELEMENT_SET_NO = 999
REV_AT_EPOCH   = 205
BSTAR          = .47765E-3
MEAN_MOTION_DOT = .9606E-4
MEAN_MOTION_DDOT = 0

CCSDS_OMM_VERS = 2.0
CREATION_DATE  = 
ORIGINATOR     = 

OBJECT_NAME    = TWILIGHT AN
OBJECT_ID      = 2026-004AN
CENTER_NAME    = EARTH
REF_FRAME      = TEME
TIME_SYSTEM    = UTC
MEAN_ELEMENT_THEORY = SGP/SGP4

EPOCH          = 2026-01-25T03:05:22.479360
MEAN_MOTION    = 15.17966408
ECCENTRICITY   = .0009338
INCLINATION    = 97.4551
RA_OF_ASC_NODE = 26.2976
ARG_OF_PERICENTER = 118.1058
MEAN_ANOMALY   = 242.1121

EPHEMERIS_TYPE = 0
CLASSIFICATION_TYPE = U
NORAD_CAT_ID   = 67399
ELEMENT_SET_NO = 999
REV_AT_EPOCH   = 205
BSTAR          = .58722E-3
MEAN_MOTION_DOT = .11884E-3
MEAN_MOTION_DDOT = 0

CCSDS_OMM_VERS = 2.0
CREATION_DATE  = 
ORIGINATOR     = 

OBJECT_NAME    = TWILIGHT AP
OBJECT_ID      = 2026-004AP
CENTER_NAME    = EARTH
REF_FRAME      = TEME
TIME_SYSTEM    = UTC
MEAN_ELEMENT_THEORY = SGP/SGP4

EPOCH          = 2026-01-25T03:01:20.000352
MEAN_MOTION    = 15.18275021
ECCENTRICITY   = .0010669
INCLINATION    = 97.4551
RA_OF_ASC_NODE = 26.3012
ARG_OF_PERICENTER = 119.0329
MEAN_ANOMALY   = 241.1975

EPHEMERIS_TYPE = 0
CLASSIFICATION_TYPE = U
NORAD_CAT_ID   = 67400
ELEMENT_SET_NO = 999
REV_AT_EPOCH   = 205
BSTAR          = .75265E-3
MEAN_MOTION_DOT = .15399E-3
MEAN_MOTION_DDOT = 0

CCSDS_OMM_VERS = 2.0
CREATION_DATE  = 
ORIGINATOR     = 

OBJECT_NAME    = TWILIGHT AQ
OBJECT_ID      = 2026-004AQ
CENTER_NAME    = EARTH
REF_FRAME      = TEME
TIME_SYSTEM    = UTC
MEAN_ELEMENT_THEORY = SGP/SGP4

EPOCH          = 2026-01-25T03:00:00.071712
MEAN_MOTION    = 15.18380952
ECCENTRICITY   = .0011418
INCLINATION    = 97.4493
RA_OF_ASC_NODE = 26.2922
ARG_OF_PERICENTER = 114.1102
MEAN_ANOMALY   = 246.1328

EPHEMERIS_TYPE = 0
CLASSIFICATION_TYPE = U
NORAD_CAT_ID   = 67401
ELEMENT_SET_NO = 999
REV_AT_EPOCH   = 205
BSTAR          = .81752E-3
MEAN_MOTION_DOT = .1679E-3
MEAN_MOTION_DDOT = 0

CCSDS_OMM_VERS = 2.0
CREATION_DATE  = 
ORIGINATOR     = 

OBJECT_NAME    = TWILIGHT AR
OBJECT_ID      = 2026-004AR
CENTER_NAME    = EARTH
REF_FRAME      = TEME
TIME_SYSTEM    = UTC
MEAN_ELEMENT_THEORY = SGP/SGP4

EPOCH          = 2026-01-25T03:20:09.772800
MEAN_MOTION    = 15.16795647
ECCENTRICITY   = .0004858
INCLINATION    = 97.4552
RA_OF_ASC_NODE = 26.2848
ARG_OF_PERICENTER = 95.8971
MEAN_ANOMALY   = 264.2816

EPHEMERIS_TYPE = 0
CLASSIFICATION_TYPE = U
NORAD_CAT_ID   = 67402
ELEMENT_SET_NO = 999
REV_AT_EPOCH   = 204
BSTAR          = .43068E-3
MEAN_MOTION_DOT = .84E-4
MEAN_MOTION_DDOT = 0

CCSDS_OMM_VERS = 2.0
CREATION_DATE  = 
ORIGINATOR     = 

OBJECT_NAME    = SHIJIAN-29B (SJ-29B)
OBJECT_ID      = 2025-315C
CENTER_NAME    = EARTH
REF_FRAME      = TEME
TIME_SYSTEM    = UTC
MEAN_ELEMENT_THEORY = SGP/SGP4

EPOCH          = 2026-01-25T02:05:54.367584
MEAN_MOTION    = 1.00273555
ECCENTRICITY   = .0001157
INCLINATION    = 3.0341
RA_OF_ASC_NODE = 98.8863
ARG_OF_PERICENTER = 319.0593
MEAN_ANOMALY   = 171.0044

EPHEMERIS_TYPE = 0
CLASSIFICATION_TYPE = U
NORAD_CAT_ID   = 67403
ELEMENT_SET_NO = 999
REV_AT_EPOCH   = 25
BSTAR          = 0
MEAN_MOTION_DOT = -.54E-6
MEAN_MOTION_DDOT = 0

