TWILIGHT AF             
1 67392U 26004AF  26025.13382457  .00021211  00000+0  10567-2 0  9994
2 67392  97.4498  26.2811 0007415 104.9349 255.2706 15.17566202  2056
TWILIGHT AG             
1 67393U 26004AG  26024.73719669  .00017436  00000+0  86616-3 0  9992
2 67393  97.4527  25.8996 0007477 110.9682 249.2353 15.17706881  1996
TWILIGHT AH             
1 67394U 26004AH  26025.12692166  .00013694  00000+0  67222-3 0  9993
2 67394  97.4468  26.2848 0010679 111.1588 249.0788 15.18151569  2054
TWILIGHT AJ             
1 67395U 26004AJ  26025.13222229  .00003893  00000+0  43237-3 0  9994
2 67395  97.8006  26.0750 0004059 229.8751 130.2111 14.87767929  2005
TWILIGHT AK             
1 67396U 26004AK  26025.13052572  .00013881  00000+0  68918-3 0  9998
2 67396  97.4505  26.2868 0008819 110.7149 249.5030 15.17767640  2058
TWILIGHT AL             
1 67397U 26004AL  26025.13224010  .00018495  00000+0  92084-3 0  9994
2 67397  97.4525  26.2887 0007736 110.9430 249.2632 15.17613551  2050
TWILIGHT AM             
1 67398U 26004AM  26025.13012607  .00009606  00000+0  47765-3 0  9992
2 67398  97.4563  26.2977 0008587 118.2337 241.9765 15.17811983  2050
TWILIGHT AN             
1 67399U 26004AN  26025.12873240  .00011884  00000+0  58722-3 0  9996
2 67399  97.4551  26.2976 0009338 118.1058 242.1121 15.17966408  2053
TWILIGHT AP             
1 67400U 26004AP  26025.12592593  .00015399  00000+0  75265-3 0  9994
2 67400  97.4551  26.3012 0010669 119.0329 241.1975 15.18275021  2059
TWILIGHT AQ             
1 67401U 26004AQ  26025.12500083  .00016790  00000+0  81752-3 0  9992
2 67401  97.4493  26.2922 0011418 114.1102 246.1328 15.18380952  2059
TWILIGHT AR             
1 67402U 26004AR  26025.13900200  .00008400  00000+0  43068-3 0  9996
2 67402  97.4552  26.2848 0004858  95.8971 264.2816 15.16795647  2043
SHIJIAN-29B (SJ-29B)    
1 67403U 25315C   26025.08743481 -.00000054  00000+0  00000+0 0  9994
2 67403   3.0341  98.8863 0001157 319.0593 171.0044  1.00273555   251
